IRIDIUM 63              
1 25286U 98021B   25184.61817097  .00000257  00000+0  80684-4 0  9995
2 25286  86.3966  75.2393 0002042  88.4741 271.6690 14.36555338426200
IRIDIUM 69              
1 25319U 98026A   25184.44152503  .00000369  00000+0  10879-3 0  9994
2 25319  86.3967  88.5554 0002493  24.8110 335.3209 14.40980572425400
IRIDIUM 73              
1 25344U 98032C   25184.53565652  .00000383  00000+0  90162-4 0  9992
2 25344  86.4401  39.8715 0001688  76.2943 283.8450 14.51728397432938
IRIDIUM 82              
1 25467U 98051A   25184.48118979  .00015917  00000+0  44967-3 0  9999
2 25467  86.3663 101.7232 0081338 233.2660 126.1103 15.32875365426459
