<?xml version="1.0" encoding="UTF-8"?>
<ndm xmlns:xsi="http://www.w3.org/2001/XMLSchema-instance" xsi:noNamespaceSchemaLocation="https://sanaregistry.org/r/ndmxml_unqualified/ndmxml-2.0.0-master-2.0.xsd">
<omm id="CCSDS_OMM_VERS" version="2.0">
<header><CREATION_DATE/><ORIGINATOR/></header><body><segment><metadata><OBJECT_NAME>IRIDIUM 63</OBJECT_NAME><OBJECT_ID>1998-021B</OBJECT_ID><CENTER_NAME>EARTH</CENTER_NAME><REF_FRAME>TEME</REF_FRAME><TIME_SYSTEM>UTC</TIME_SYSTEM><MEAN_ELEMENT_THEORY>SGP4</MEAN_ELEMENT_THEORY></metadata><data><meanElements><EPOCH>2025-07-03T14:50:09.971808</EPOCH><MEAN_MOTION>14.36555338</MEAN_MOTION><ECCENTRICITY>.0002042</ECCENTRICITY><INCLINATION>86.3966</INCLINATION><RA_OF_ASC_NODE>75.2393</RA_OF_ASC_NODE><ARG_OF_PERICENTER>88.4741</ARG_OF_PERICENTER><MEAN_ANOMALY>271.6690</MEAN_ANOMALY></meanElements><tleParameters><EPHEMERIS_TYPE>0</EPHEMERIS_TYPE><CLASSIFICATION_TYPE>U</CLASSIFICATION_TYPE><NORAD_CAT_ID>25286</NORAD_CAT_ID><ELEMENT_SET_NO>999</ELEMENT_SET_NO><REV_AT_EPOCH>42620</REV_AT_EPOCH><BSTAR>.80684E-4</BSTAR><MEAN_MOTION_DOT>.257E-5</MEAN_MOTION_DOT><MEAN_MOTION_DDOT>0</MEAN_MOTION_DDOT></tleParameters></data></segment></body></omm>
<omm id="CCSDS_OMM_VERS" version="2.0">
<header><CREATION_DATE/><ORIGINATOR/></header><body><segment><metadata><OBJECT_NAME>IRIDIUM 69</OBJECT_NAME><OBJECT_ID>1998-026A</OBJECT_ID><CENTER_NAME>EARTH</CENTER_NAME><REF_FRAME>TEME</REF_FRAME><TIME_SYSTEM>UTC</TIME_SYSTEM><MEAN_ELEMENT_THEORY>SGP4</MEAN_ELEMENT_THEORY></metadata><data><meanElements><EPOCH>2025-07-03T10:35:47.762592</EPOCH><MEAN_MOTION>14.40980572</MEAN_MOTION><ECCENTRICITY>.0002493</ECCENTRICITY><INCLINATION>86.3967</INCLINATION><RA_OF_ASC_NODE>88.5554</RA_OF_ASC_NODE><ARG_OF_PERICENTER>24.8110</ARG_OF_PERICENTER><MEAN_ANOMALY>335.3209</MEAN_ANOMALY></meanElements><tleParameters><EPHEMERIS_TYPE>0</EPHEMERIS_TYPE><CLASSIFICATION_TYPE>U</CLASSIFICATION_TYPE><NORAD_CAT_ID>25319</NORAD_CAT_ID><ELEMENT_SET_NO>999</ELEMENT_SET_NO><REV_AT_EPOCH>42540</REV_AT_EPOCH><BSTAR>.10879E-3</BSTAR><MEAN_MOTION_DOT>.369E-5</MEAN_MOTION_DOT><MEAN_MOTION_DDOT>0</MEAN_MOTION_DDOT></tleParameters></data></segment></body></omm>
<omm id="CCSDS_OMM_VERS" version="2.0">
<header><CREATION_DATE/><ORIGINATOR/></header><body><segment><metadata><OBJECT_NAME>IRIDIUM 73</OBJECT_NAME><OBJECT_ID>1998-032C</OBJECT_ID><CENTER_NAME>EARTH</CENTER_NAME><REF_FRAME>TEME</REF_FRAME><TIME_SYSTEM>UTC</TIME_SYSTEM><MEAN_ELEMENT_THEORY>SGP4</MEAN_ELEMENT_THEORY></metadata><data><meanElements><EPOCH>2025-07-03T12:51:20.723328</EPOCH><MEAN_MOTION>14.51728397</MEAN_MOTION><ECCENTRICITY>.0001688</ECCENTRICITY><INCLINATION>86.4401</INCLINATION><RA_OF_ASC_NODE>39.8715</RA_OF_ASC_NODE><ARG_OF_PERICENTER>76.2943</ARG_OF_PERICENTER><MEAN_ANOMALY>283.8450</MEAN_ANOMALY></meanElements><tleParameters><EPHEMERIS_TYPE>0</EPHEMERIS_TYPE><CLASSIFICATION_TYPE>U</CLASSIFICATION_TYPE><NORAD_CAT_ID>25344</NORAD_CAT_ID><ELEMENT_SET_NO>999</ELEMENT_SET_NO><REV_AT_EPOCH>43293</REV_AT_EPOCH><BSTAR>.90162E-4</BSTAR><MEAN_MOTION_DOT>.383E-5</MEAN_MOTION_DOT><MEAN_MOTION_DDOT>0</MEAN_MOTION_DDOT></tleParameters></data></segment></body></omm>
<omm id="CCSDS_OMM_VERS" version="2.0">
<header><CREATION_DATE/><ORIGINATOR/></header><body><segment><metadata><OBJECT_NAME>IRIDIUM 82</OBJECT_NAME><OBJECT_ID>1998-051A</OBJECT_ID><CENTER_NAME>EARTH</CENTER_NAME><REF_FRAME>TEME</REF_FRAME><TIME_SYSTEM>UTC</TIME_SYSTEM><MEAN_ELEMENT_THEORY>SGP4</MEAN_ELEMENT_THEORY></metadata><data><meanElements><EPOCH>2025-07-03T11:32:54.797856</EPOCH><MEAN_MOTION>15.32875365</MEAN_MOTION><ECCENTRICITY>.0081338</ECCENTRICITY><INCLINATION>86.3663</INCLINATION><RA_OF_ASC_NODE>101.7232</RA_OF_ASC_NODE><ARG_OF_PERICENTER>233.2660</ARG_OF_PERICENTER><MEAN_ANOMALY>126.1103</MEAN_ANOMALY></meanElements><tleParameters><EPHEMERIS_TYPE>0</EPHEMERIS_TYPE><CLASSIFICATION_TYPE>U</CLASSIFICATION_TYPE><NORAD_CAT_ID>25467</NORAD_CAT_ID><ELEMENT_SET_NO>999</ELEMENT_SET_NO><REV_AT_EPOCH>42645</REV_AT_EPOCH><BSTAR>.44967E-3</BSTAR><MEAN_MOTION_DOT>.15917E-3</MEAN_MOTION_DOT><MEAN_MOTION_DDOT>0</MEAN_MOTION_DDOT></tleParameters></data></segment></body></omm>
</ndm>
